$$SOE
2459580.500000000, A.D. 2022-Jan-01 00:00:00.0000, 3.113093673630278E+08, 5.436790437224212E+08, -1.044479156737488E+08,
2459587.500000000, A.D. 2022-Jan-08 00:00:00.0000, 3.037927630825332E+08, 5.475094687936083E+08, -1.039054162569145E+08,
2459594.500000000, A.D. 2022-Jan-15 00:00:00.0000, 2.962184306001548E+08, 5.512359095404917E+08, -1.033431829303104E+08,
2459601.500000000, A.D. 2022-Jan-22 00:00:00.0000, 2.885876935484699E+08, 5.548574362162238E+08, -1.027612814061165E+08,
2459608.500000000, A.D. 2022-Jan-29 00:00:00.0000, 2.809018905310944E+08, 5.583731338737932E+08, -1.021597806224244E+08,
2459615.500000000, A.D. 2022-Feb-05 00:00:00.0000, 2.731623729211489E+08, 5.617821019044254E+08, -1.015387526205999E+08,
2459622.500000000, A.D. 2022-Feb-12 00:00:00.0000, 2.653705048312697E+08, 5.650834525132794E+08, -1.008982727081976E+08,
2459629.500000000, A.D. 2022-Feb-19 00:00:00.0000, 2.575276639306560E+08, 5.682763105012909E+08, -1.002384195924672E+08,
2459636.500000000, A.D. 2022-Feb-26 00:00:00.0000, 2.496352417975300E+08, 5.713598136297368E+08, -9.955927542328431E+07,
2459643.500000000, A.D. 2022-Mar-05 00:00:00.0000, 2.416946439659154E+08, 5.743331129505252E+08, -9.886092581067470E+07,
2459650.500000000, A.D. 2022-Mar-12 00:00:00.0000, 2.337072898882788E+08, 5.771953730365663E+08, -9.814345984287928E+07,
2459657.500000000, A.D. 2022-Mar-19 00:00:00.0000, 2.256746128848574E+08, 5.799457721404227E+08, -9.740697010945317E+07,
2459664.500000000, A.D. 2022-Mar-26 00:00:00.0000, 2.175980601018480E+08, 5.825835022754965E+08, -9.665155273219056E+07,
2459671.500000000, A.D. 2022-Apr-02 00:00:00.0000, 2.094790925460153E+08, 5.851077691641639E+08, -9.587730741489084E+07,
2459678.500000000, A.D. 2022-Apr-09 00:00:00.0000, 2.013191854675354E+08, 5.875177920580350E+08, -9.508433753673899E+07,
2459685.500000000, A.D. 2022-Apr-16 00:00:00.0000, 1.931198294481089E+08, 5.898128040848634E+08, -9.427275026884288E+07,
2459692.500000000, A.D. 2022-Apr-23 00:00:00.0000, 1.848825309255755E+08, 5.919920542064990E+08, -9.344265650908825E+07,
2459699.500000000, A.D. 2022-Apr-30 00:00:00.0000, 1.766088102845257E+08, 5.940548085420986E+08, -9.259417064711607E+07,
2459706.500000000, A.D. 2022-May-07 00:00:00.0000, 1.683002005748477E+08, 5.960003490833130E+08, -9.172741060158417E+07,
2459713.500000000, A.D. 2022-May-14 00:00:00.0000, 1.599582482476150E+08, 5.978279728404777E+08, -9.084249800911841E+07,
2459720.500000000, A.D. 2022-May-21 00:00:00.0000, 1.515845138773897E+08, 5.995369921785027E+08, -8.993955831667435E+07,
2459727.500000000, A.D. 2022-May-28 00:00:00.0000, 1.431805723918656E+08, 6.011267353834901E+08, -8.901872081162164E+07,
2459734.500000000, A.D. 2022-Jun-04 00:00:00.0000, 1.347480130856511E+08, 6.025965471473048E+08, -8.808011864044783E+07,
2459741.500000000, A.D. 2022-Jun-11 00:00:00.0000, 1.262884395626243E+08, 6.039457889724791E+08, -8.712388882910773E+07,
2459748.500000000, A.D. 2022-Jun-18 00:00:00.0000, 1.178034696453401E+08, 6.051738395109773E+08, -8.615017230740437E+07,
2459755.500000000, A.D. 2022-Jun-25 00:00:00.0000, 1.092947352807147E+08, 6.062800948039376E+08, -8.515911394271633E+07,
2459762.500000000, A.D. 2022-Jul-02 00:00:00.0000, 1.007638825757972E+08, 6.072639683569866E+08, -8.415086260062590E+07,
2459769.500000000, A.D. 2022-Jul-09 00:00:00.0000, 9.221257235368901E+07, 6.081248912285353E+08, -8.312557125368011E+07,
2459776.500000000, A.D. 2022-Jul-16 00:00:00.0000, 8.364248117443138E+07, 6.088623132143676E+08, -8.208339704467624E+07,
2459783.500000000, A.D. 2022-Jul-23 00:00:00.0000, 7.505530062276974E+07, 6.094757052061474E+08, -8.102450109628770E+07,
2459790.500000000, A.D. 2022-Jul-30 00:00:00.0000, 6.645273494663178E+07, 6.099645593690088E+08, -7.994904834831998E+07,
2459797.500000000, A.D. 2022-Aug-06 00:00:00.0000, 5.783650064441561E+07, 6.103283877863255E+08, -7.885720769939795E+07,
2459804.500000000, A.D. 2022-Aug-13 00:00:00.0000, 4.920832717790530E+07, 6.105667223262999E+08, -7.774915215230328E+07,
2459811.500000000, A.D. 2022-Aug-20 00:00:00.0000, 4.056995724132650E+07, 6.106791152263442E+08, -7.662505885974267E+07,
2459818.500000000, A.D. 2022-Aug-27 00:00:00.0000, 3.192314665404858E+07, 6.106651396681637E+08, -7.548510913575837E+07,
2459825.500000000, A.D. 2022-Sep-03 00:00:00.0000, 2.326966412416783E+07, 6.105243902329829E+08, -7.432948846431586E+07,
2459832.500000000, A.D. 2022-Sep-10 00:00:00.0000, 1.461129097257292E+07, 6.102564832611104E+08, -7.315838651128924E+07,
2459839.500000000, A.D. 2022-Sep-17 00:00:00.0000, 5.949820846643676E+06, 6.098610571144358E+08, -7.197199714270383E+07,
2459846.500000000, A.D. 2022-Sep-24 00:00:00.0000, -2.712940516100689E+06, 6.093377722911699E+08, -7.077051845900372E+07,
2459853.500000000, A.D. 2022-Oct-01 00:00:00.0000, -1.137517523454398E+07, 6.086863113705438E+08, -6.955415286928058E+07,
2459860.500000000, A.D. 2022-Oct-08 00:00:00.0000, -2.003505253360676E+07, 6.079063793095609E+08, -6.832310720032850E+07,
2459867.500000000, A.D. 2022-Oct-15 00:00:00.0000, -2.869072822885863E+07, 6.069977052911088E+08, -6.707759265732795E+07,
2459874.500000000, A.D. 2022-Oct-22 00:00:00.0000, -3.734034662748710E+07, 6.059600444389831E+08, -6.581782457380840E+07,
2459881.500000000, A.D. 2022-Oct-29 00:00:00.0000, -4.598204234833980E+07, 6.047931768052338E+08, -6.454402239190829E+07,
2459888.500000000, A.D. 2022-Nov-05 00:00:00.0000, -5.461393996260927E+07, 6.034969063711851E+08, -6.325640984175375E+07,
2459895.500000000, A.D. 2022-Nov-12 00:00:00.0000, -6.323415342007007E+07, 6.020710613297193E+08, -6.195521503651795E+07,
2459902.500000000, A.D. 2022-Nov-19 00:00:00.0000, -7.184078598027118E+07, 6.005154946943537E+08, -6.064067049525636E+07,
2459909.500000000, A.D. 2022-Nov-26 00:00:00.0000, -8.043193038674003E+07, 5.988300848373575E+08, -5.931301315006924E+07,
2459916.500000000, A.D. 2022-Dec-03 00:00:00.0000, -8.900566911846806E+07, 5.970147359451020E+08, -5.797248435377520E+07,
2459923.500000000, A.D. 2022-Dec-10 00:00:00.0000, -9.756007467339532E+07, 5.950693784090781E+08, -5.661932989071858E+07,
2459930.500000000, A.D. 2022-Dec-17 00:00:00.0000, -1.060932098593754E+08, 5.929939691272752E+08, -5.525379999494708E+07,
2459937.500000000, A.D. 2022-Dec-24 00:00:00.0000, -1.146031279834350E+08, 5.907884916496888E+08, -5.387614939105201E+07,
2459944.500000000, A.D. 2022-Dec-31 00:00:00.0000, -1.230878725819718E+08, 5.884529562750248E+08, -5.248663738153830E+07,
2459951.500000000, A.D. 2023-Jan-07 00:00:00.0000, -1.315454765695754E+08, 5.859874010607198E+08, -5.108552791322327E+07,
2459958.500000000, A.D. 2023-Jan-14 00:00:00.0000, -1.399739627736493E+08, 5.833918942430425E+08, -4.967308940158418E+07,
2459965.500000000, A.D. 2023-Jan-21 00:00:00.0000, -1.483713464993927E+08, 5.806665348937422E+08, -4.824959451294625E+07,
2459972.500000000, A.D. 2023-Jan-28 00:00:00.0000, -1.567356364578526E+08, 5.778114516165357E+08, -4.681532025659308E+07,
2459979.500000000, A.D. 2023-Feb-04 00:00:00.0000, -1.650648342666142E+08, 5.748268023114245E+08, -4.537054812023535E+07,
2459986.500000000, A.D. 2023-Feb-11 00:00:00.0000, -1.733569343185418E+08, 5.717127748136185E+08, -4.391556409998059E+07,
2459993.500000000, A.D. 2023-Feb-18 00:00:00.0000, -1.816099240818650E+08, 5.684695875837140E+08, -4.245065868609795E+07,
2460000.500000000, A.D. 2023-Feb-25 00:00:00.0000, -1.898217845689587E+08, 5.650974902871857E+08, -4.097612684169120E+07,
2460007.500000000, A.D. 2023-Mar-04 00:00:00.0000, -1.979904908717229E+08, 5.615967642819799E+08, -3.949226798189661E+07,
2460014.500000000, A.D. 2023-Mar-11 00:00:00.0000, -2.061140127349343E+08, 5.579677230147239E+08, -3.799938595594984E+07,
2460021.500000000, A.D. 2023-Mar-18 00:00:00.0000, -2.141903151203834E+08, 5.542107122760255E+08, -3.649778904020670E+07,
2460028.500000000, A.D. 2023-Mar-25 00:00:00.0000, -2.222173585582590E+08, 5.503261102674587E+08, -3.498778996431005E+07,
2460035.500000000, A.D. 2023-Apr-01 00:00:00.0000, -2.301930988610286E+08, 5.463143278732517E+08, -3.346970597695899E+07,
2460042.500000000, A.D. 2023-Apr-08 00:00:00.0000, -2.381154868150964E+08, 5.421758103613107E+08, -3.194385879443306E+07,
2460049.500000000, A.D. 2023-Apr-15 00:00:00.0000, -2.459824701868576E+08, 5.379110394070094E+08, -3.041057430765721E+07,
2460056.500000000, A.D. 2023-Apr-22 00:00:00.0000, -2.537919962333840E+08, 5.335205323862123E+08, -2.887018246276075E+07,
2460063.500000000, A.D. 2023-Apr-29 00:00:00.0000, -2.615420119834491E+08, 5.290048411888161E+08, -2.732301738160741E+07,
2460070.500000000, A.D. 2023-May-06 00:00:00.0000, -2.692304640502751E+08, 5.243645523341002E+08, -2.576941741538841E+07,
2460077.500000000, A.D. 2023-May-13 00:00:00.0000, -2.768552989530804E+08, 5.196002874947103E+08, -2.420972511487880E+07,
2460084.500000000, A.D. 2023-May-20 00:00:00.0000, -2.844144637132565E+08, 5.147127039380887E+08, -2.264428717911339E+07,
2460091.500000000, A.D. 2023-May-27 00:00:00.0000, -2.919059065316089E+08, 5.097024948556374E+08, -2.107345440280476E+07,
2460098.500000000, A.D. 2023-Jun-03 00:00:00.0000, -2.993275774889302E+08, 5.045703896051767E+08, -1.949758162585422E+07,
2460105.500000000, A.D. 2023-Jun-10 00:00:00.0000, -3.066774292459472E+08, 4.993171538523419E+08, -1.791702768845186E+07,
2460112.500000000, A.D. 2023-Jun-17 00:00:00.0000, -3.139534176534374E+08, 4.939435895500896E+08, -1.633215540501428E+07,
2460119.500000000, A.D. 2023-Jun-24 00:00:00.0000, -3.211535019524056E+08, 4.884505348110909E+08, -1.474333158191192E+07,
2460126.500000000, A.D. 2023-Jul-01 00:00:00.0000, -3.282756443112368E+08, 4.828388645003018E+08, -1.315092703465605E+07,
2460133.500000000, A.D. 2023-Jul-08 00:00:00.0000, -3.353178103740832E+08, 4.771094923693990E+08, -1.155531638397288E+07,
2460140.500000000, A.D. 2023-Jul-15 00:00:00.0000, -3.422779720968707E+08, 4.712633719031032E+08, -9.956877745011091E+06,
2460147.500000000, A.D. 2023-Jul-22 00:00:00.0000, -3.491541093486229E+08, 4.653014948415737E+08, -8.355992717104971E+06,
$$EOE